[{"OBJECT_NAME":"STARLINK-4321","OBJECT_ID":"2022-077AR","EPOCH":"2026-03-09T10:53:42.751392","MEAN_MOTION":15.01260631,"ECCENTRICITY":0.00011762,"INCLINATION":97.6032,"RA_OF_ASC_NODE":249.989,"ARG_OF_PERICENTER":87.6483,"MEAN_ANOMALY":272.4876,"EPHEMERIS_TYPE":0,"CLASSIFICATION_TYPE":"U","NORAD_CAT_ID":53082,"ELEMENT_SET_NO":999,"REV_AT_EPOCH":20088,"BSTAR":5.0339452e-5,"MEAN_MOTION_DOT":5.88e-6,"MEAN_MOTION_DDOT":0},{"OBJECT_NAME":"SL-16 DEB","OBJECT_ID":"1992-093JY","EPOCH":"2026-03-07T13:13:58.279008","MEAN_MOTION":15.07529046,"ECCENTRICITY":0.0041412,"INCLINATION":71.2754,"RA_OF_ASC_NODE":129.6393,"ARG_OF_PERICENTER":153.6297,"MEAN_ANOMALY":274.6618,"EPHEMERIS_TYPE":0,"CLASSIFICATION_TYPE":"U","NORAD_CAT_ID":39708,"ELEMENT_SET_NO":999,"REV_AT_EPOCH":64104,"BSTAR":0.0012088,"MEAN_MOTION_DOT":0.00018716,"MEAN_MOTION_DDOT":0}]
